H1 CPF  1  DGF 2022 11 01 15  8051 larets     NONE      
H2   304206 5557    27944 2022 10 28 00 00 00 2022 11 04 00 00 00    30 1 1  0 0 0
H5  0.0650
H9
10 0 59880  75600.000000  0        146913.397      -3592715.879       6071855.348
10 0 59880  75630.000000  0         82888.758      -3779589.614       5958497.182
10 0 59880  75660.000000  0         17971.570      -3962354.208       5839061.151
10 0 59880  75690.000000  0        -47754.062      -4140820.059       5713667.836
10 0 59880  75720.000000  0       -114202.363      -4314802.195       5582443.931
10 0 59880  75750.000000  0       -181285.995      -4484120.479       5445522.127
10 0 59880  75780.000000  0       -248916.170      -4648599.801       5303040.990
10 0 59880  75810.000000  0       -317002.756      -4808070.272       5155144.827
10 0 59880  75840.000000  0       -385454.398      -4962367.412       5001983.544
10 0 59880  75870.000000  0       -454178.631      -5111332.330       4843712.503
10 0 59880  75900.000000  0       -523082.004      -5254811.899       4680492.364
10 0 59880  75930.000000  0       -592070.198      -5392658.926       4512488.926
10 0 59880  75960.000000  0       -661048.149      -5524732.307       4339872.960
10 0 59880  75990.000000  0       -729920.173      -5650897.186       4162820.040
10 0 59880  76020.000000  0       -798590.096      -5771025.101       3981510.365
10 0 59880  76050.000000  0       -866961.376      -5884994.123       3796128.580
10 0 59880  76080.000000  0       -934937.239      -5992688.994       3606863.585
10 0 59880  76110.000000  0      -1002420.801      -6094001.251       3413908.347
10 0 59880  76140.000000  0      -1069315.207      -6188829.348       3217459.701
10 0 59880  76170.000000  0      -1135523.753      -6277078.766       3017718.146
10 0 59880  76200.000000  0      -1200950.022      -6358662.116       2814887.645
10 0 59880  76230.000000  0      -1265498.011      -6433499.237       2609175.410
10 0 59880  76260.000000  0      -1329072.270      -6501517.290       2400791.696
10 0 59880  76290.000000  0      -1391578.034      -6562650.834       2189949.577
10 0 59880  76320.000000  0      -1452921.359      -6616841.904       1976864.720
10 0 59880  76350.000000  0      -1513009.253      -6664040.069       1761755.158
10 0 59880  76380.000000  0      -1571749.808      -6704202.482       1544841.058
10 0 59880  76410.000000  0      -1629052.326      -6737293.923       1326344.489
10 0 59880  76440.000000  0      -1684827.448      -6763286.839       1106489.191
10 0 59880  76470.000000  0      -1738987.283      -6782161.364        885500.331
10 0 59880  76500.000000  0      -1791445.530      -6793905.342        663604.273
10 0 59880  76530.000000  0      -1842117.605      -6798514.328        441028.329
10 0 59880  76560.000000  0      -1890920.759      -6795991.592        218000.522
10 0 59880  76590.000000  0      -1937774.202      -6786348.104         -5250.656
10 0 59880  76620.000000  0      -1982599.218      -6769602.515       -228496.489
10 0 59880  76650.000000  0      -2025319.280      -6745781.130       -451508.279
10 0 59880  76680.000000  0      -2065860.161      -6714917.868       -674057.588
10 0 59880  76710.000000  0      -2104150.048      -6677054.213       -895916.482
10 0 59880  76740.000000  0      -2140119.645      -6632239.162      -1116857.771
10 0 59880  76770.000000  0      -2173702.280      -6580529.158      -1336655.253
10 0 59880  76800.000000  0      -2204834.002      -6521988.018      -1555083.949
10 0 59880  76830.000000  0      -2233453.681      -6456686.848      -1771920.347
10 0 59880  76860.000000  0      -2259503.103      -6384703.953      -1986942.635
10 0 59880  76890.000000  0      -2282927.056      -6306124.741      -2199930.933
10 0 59880  76920.000000  0      -2303673.419      -6221041.611      -2410667.533
10 0 59880  76950.000000  0      -2321693.244      -6129553.836      -2618937.120
10 0 59880  76980.000000  0      -2336940.833      -6031767.442      -2824527.000
10 0 59880  77010.000000  0      -2349373.812      -5927795.074      -3027227.326
10 0 59880  77040.000000  0      -2358953.197      -5817755.856      -3226831.307
10 0 59880  77070.000000  0      -2365643.466      -5701775.244      -3423135.430
10 0 59880  77100.000000  0      -2369412.612      -5579984.875      -3615939.666
10 0 59880  77130.000000  0      -2370232.204      -5452522.404      -3805047.670
10 0 59880  77160.000000  0      -2368077.433      -5319531.342      -3990266.989
10 0 59880  77190.000000  0      -2362927.163      -5181160.880      -4171409.248
10 0 59880  77220.000000  0      -2354763.973      -5037565.715      -4348290.346
10 0 59880  77250.000000  0      -2343574.191      -4888905.866      -4520730.637
10 0 59880  77280.000000  0      -2329347.928      -4735346.490      -4688555.109
10 0 59880  77310.000000  0      -2312079.111      -4577057.682      -4851593.560
10 0 59880  77340.000000  0      -2291765.497      -4414214.286      -5009680.766
10 0 59880  77370.000000  0      -2268408.700      -4246995.687      -5162656.640
10 0 59880  77400.000000  0      -2242014.203      -4075585.612      -5310366.391
10 0 59880  77430.000000  0      -2212591.365      -3900171.917      -5452660.679
10 0 59880  77460.000000  0      -2180153.424      -3720946.372      -5589395.752
10 0 59880  77490.000000  0      -2144717.504      -3538104.450      -5720433.591
10 0 59880  77520.000000  0      -2106304.602      -3351845.101      -5845642.043
10 0 59880  77550.000000  0      -2064939.580      -3162370.537      -5964894.941
10 0 59880  77580.000000  0      -2020651.154      -2969885.997      -6078072.231
10 0 59880  77610.000000  0      -1973471.866      -2774599.526      -6185060.078
10 0 59880  77640.000000  0      -1923438.065      -2576721.744      -6285750.973
10 0 59880  77670.000000  0      -1870589.874      -2376465.615      -6380043.835
10 0 59880  77700.000000  0      -1814971.162      -2174046.215      -6467844.096
10 0 59880  77730.000000  0      -1756629.502      -1969680.501      -6549063.792
10 0 59880  77760.000000  0      -1695616.132      -1763587.079      -6623621.642
10 0 59880  77790.000000  0      -1631985.907      -1555985.963      -6691443.119
10 0 59880  77820.000000  0      -1565797.252      -1347098.350      -6752460.517
10 0 59880  77850.000000  0      -1497112.101      -1137146.373      -6806613.011
10 0 59880  77880.000000  0      -1425995.847       -926352.878      -6853846.706
10 0 59880  77910.000000  0      -1352517.273       -714941.180      -6894114.690
10 0 59880  77940.000000  0      -1276748.487       -503134.837      -6927377.067
10 0 59880  77970.000000  0      -1198764.850       -291157.408      -6953600.996
10 0 59880  78000.000000  0      -1118644.899        -79232.232      -6972760.716
10 0 59880  78030.000000  0      -1036470.270        132417.811      -6984837.568
10 0 59880  78060.000000  0       -952325.609        343570.527      -6989820.010
10 0 59880  78090.000000  0       -866298.495        554004.636      -6987703.630
10 0 59880  78120.000000  0       -778479.340        763500.010      -6978491.141
10 0 59880  78150.000000  0       -688961.299        971837.894      -6962192.378
10 0 59880  78180.000000  0       -597840.172       1178801.128      -6938824.281
10 0 59880  78210.000000  0       -505214.307       1384174.366      -6908410.881
10 0 59880  78240.000000  0       -411184.497       1587744.301      -6870983.277
10 0 59880  78270.000000  0       -315853.868       1789299.878      -6826579.612
10 0 59880  78300.000000  0       -219327.773       1988632.516      -6775245.033
10 0 59880  78330.000000  0       -121713.674       2185536.322      -6717031.651
10 0 59880  78360.000000  0        -23121.024       2379808.299      -6651998.490
10 0 59880  78390.000000  0         76338.851       2571248.554      -6580211.436
10 0 59880  78420.000000  0        176552.881       2759660.507      -6501743.171
10 0 59880  78450.000000  0        277406.378       2944851.095      -6416673.106
10 0 59880  78480.000000  0        378783.161       3126630.963      -6325087.299
10 0 59880  78510.000000  0        480565.690       3304814.663      -6227078.373
10 0 59880  78540.000000  0        582635.199       3479220.835      -6122745.428
10 0 59880  78570.000000  0        684871.827       3649672.394      -6012193.949
10 0 59880  78600.000000  0        787154.759       3815996.713      -5895535.708
10 0 59880  78630.000000  0        889362.364       3978025.801      -5772888.660
10 0 59880  78660.000000  0        991372.340       4135596.473      -5644376.825
10 0 59880  78690.000000  0       1093061.851       4288550.517      -5510130.176
10 0 59880  78720.000000  0       1194307.678       4436734.864      -5370284.512
10 0 59880  78750.000000  0       1294986.364       4580001.739      -5224981.329
10 0 59880  78780.000000  0       1394974.361       4718208.818      -5074367.684
10 0 59880  78810.000000  0       1494148.180       4851219.378      -4918596.044
10 0 59880  78840.000000  0       1592384.540       4978902.432      -4757824.145
10 0 59880  78870.000000  0       1689560.518       5101132.865      -4592214.832
10 0 59880  78900.000000  0       1785553.700       5217791.560      -4421935.897
10 0 59880  78930.000000  0       1880242.332       5328765.524      -4247159.920
10 0 59880  78960.000000  0       1973505.470       5433947.997      -4068064.096
10 0 59880  78990.000000  0       2065223.131       5533238.568      -3884830.062
10 0 59880  79020.000000  0       2155276.444       5626543.273      -3697643.712
10 0 59880  79050.000000  0       2243547.802       5713774.695      -3506695.018
10 0 59880  79080.000000  0       2329921.011       5794852.050      -3312177.836
10 0 59880  79110.000000  0       2414281.438       5869701.270      -3114289.708
10 0 59880  79140.000000  0       2496516.165       5938255.076      -2913231.671
10 0 59880  79170.000000  0       2576514.129       6000453.048      -2709208.045
99
